ORBCOMM FM25            
1 25479U 98053E   25209.33371508  .00000955  00000+0  35831-3 0  9991
2 25479  45.0076  72.2676 0004995  82.8974 277.2442 14.38145570403661
ORBCOMM FM26            
1 25480U 98053F   25209.58079218  .00000704  00000+0  28183-3 0  9997
2 25480  45.0073  67.8530 0006526 104.1690 255.9884 14.37195117403602
ORBCOMM FM27            
1 25481U 98053G   25209.59839230  .00000945  00000+0  35492-3 0  9995
2 25481  45.0058  71.2004 0001387  62.9474 297.1516 14.38177441403636
ORBCOMM FM28            
1 25482U 98053H   25209.56125690  .00000806  00000+0  30845-3 0  9994
2 25482  45.0069   8.8183 0005468 149.7898 210.3267 14.38356872404314
ORBCOMM FM32            
1 25982U 99065C   25209.47594905  .00000565  00000+0  23922-3 0  9992
2 25982  45.0151 264.6094 0008496 240.3800 119.6202 14.36344154340530
